[{"OBJECT_NAME":"STARLINK-3525","OBJECT_ID":"2022-016V","EPOCH":"2026-03-09T22:28:28.708032","MEAN_MOTION":15.08831494,"ECCENTRICITY":0.00013765,"INCLINATION":53.2169,"RA_OF_ASC_NODE":318.025,"ARG_OF_PERICENTER":84.0721,"MEAN_ANOMALY":276.0428,"EPHEMERIS_TYPE":0,"CLASSIFICATION_TYPE":"U","NORAD_CAT_ID":51733,"ELEMENT_SET_NO":999,"REV_AT_EPOCH":22360,"BSTAR":-0.00016468254,"MEAN_MOTION_DOT":-2.907e-5,"MEAN_MOTION_DDOT":0},{"OBJECT_NAME":"FENGYUN 1C DEB","OBJECT_ID":"1999-025BFB","EPOCH":"2026-03-07T22:39:13.230432","MEAN_MOTION":14.80895829,"ECCENTRICITY":0.01343541,"INCLINATION":99.2432,"RA_OF_ASC_NODE":124.2719,"ARG_OF_PERICENTER":346.3958,"MEAN_ANOMALY":13.3642,"EPHEMERIS_TYPE":0,"CLASSIFICATION_TYPE":"U","NORAD_CAT_ID":31057,"ELEMENT_SET_NO":999,"REV_AT_EPOCH":63213,"BSTAR":0.0011769904,"MEAN_MOTION_DOT":0.0001056,"MEAN_MOTION_DDOT":0}]
